# From MPC114600
C/2017 U2 (Fuls),e,95.3866,149.7065,147.8428,2824,0.0000066,0.99762370,0.0000,08/28.1862/2017,2000,g  9.0,4.0
# From MPC114600
P/2017 U3 (PANSTARRS),e,15.9187,165.1108,296.5898,4.927757,0.0901011,0.09899996,85.7675,11/21.0/2021,2000,g 11.0,4.0
# From MPEC 2021-P47
C/2017 U4 (PANSTARRS),h,09/22.6320/2018,158.2095,245.9308,158.9915,1.001199,7.720480,2000,7.0,4.0
# From MPC114600
C/2017 U5 (PANSTARRS),e,18.9784,163.0863,261.9970,16.88353,0.0142072,0.74427541,20.3622,11/21.0/2021,2000,g 12.0,4.0
# From MPEC 2021-TD0
C/2017 U7 (PANSTARRS),h,09/14.4216/2019,142.5951,276.2472,326.3469,1.000617,6.424932,2000,8.3,2.0
# From MPC114600
C/2017 W2 (Leonard),e,98.2001,312.8369,168.9569,13.63541,0.0195750,0.71042214,28.9941,11/21.0/2021,2000,g 11.0,4.0
# From MPC114601
P/2017 W3 (Gibbs),e,18.1667,210.2543,327.8441,7.839003,0.0449069,0.50682950,61.1575,11/21.0/2021,2000,g 10.5,4.0
# From MPEC 2021-R75
C/2017 X1 (PANSTARRS),e,31.3141,251.1355,283.2449,31.18501,0.0056596,0.85028224,7.1047,11/21.0/2021,2000,g 10.0,4.0
# From MPC117069
C/2017 Y1 (PANSTARRS),e,55.2627,307.5203,134.2620,1754,0.0000134,0.99788651,0.0000,08/31.3558/2017,2000,g 11.5,4.0
# From MPEC 2021-W31
C/2017 Y2 (PANSTARRS),h,11/04.8902/2020,128.4170,65.9953,147.9126,1.000864,4.632654,2000,15.0,4.0
# From MPC111770
P/2017 Y3 (Leonard),e,27.5565,153.8409,67.6132,9.837977,0.0319408,0.86982601,44.0784,11/21.0/2021,2000,g 16.5,4.0
# From MPC114601
C/2018 A1 (PANSTARRS),e,53.6154,336.6615,96.2136,25.09749,0.0078390,0.90394690,11.6968,11/21.0/2021,2000,g 12.5,4.0
# From MPEC 2021-P47
C/2018 A3 (ATLAS),e,139.5366,194.2927,86.3676,420.4048,0.0001143,0.99220778,0.0000,01/12.1317/2019,2000,g  8.5,4.0
# From MPC114601
C/2018 A4 (PANSTARRS),e,3.1489,97.6139,355.9903,12.18907,0.0231605,0.80343266,29.7003,11/21.0/2021,2000,g 14.0,4.0
# From MPC109147
P/2018 A5 (PANSTARRS),e,23.5894,87.8104,359.5179,5.631998,0.0737412,0.52261857,112.0775,11/21.0/2021,2000,g 15.0,4.0
# From MPEC 2021-W31
C/2018 A6 (Gibbs),e,77.0532,340.3802,264.4509,15.16553,0.0166885,0.80098460,14.3842,11/21.0/2021,2000,g  9.0,4.0
# From MPC118841
C/2018 B1 (Lemmon),e,162.4203,133.1905,68.3298,36986,0.0000001,0.99986156,0.0000,03/28.7635/2018,2000,g  9.0,4.0
# From MPC114601
P/2018 C1 (Lemmon-Read),e,5.1160,270.3630,235.7068,5.653865,0.0733138,0.53234906,100.1025,11/21.0/2021,2000,g 13.5,4.0
# From MPC114601
C/2018 C2 (Lemmon),h,06/01.1835/2018,34.4616,91.1772,134.0952,1.000444,1.959954,2000,13.0,4.0
# From MPEC 2021-U31
C/2018 DO4 (Lemmon),e,160.4562,251.3547,176.2365,25.49903,0.0076545,0.90542798,6.3254,11/21.0/2021,2000,g 11.0,4.0
# From MPC114602
C/2018 E1 (ATLAS),e,72.5166,146.8677,299.3420,53.87616,0.0024924,0.94992106,3.2736,11/21.0/2021,2000,g 10.5,4.0
# From MPC114602
C/2018 E2 (Barros),e,97.6719,67.1801,277.4516,3824,0.0000042,0.99897509,0.0000,12/24.0099/2017,2000,g 10.5,4.0
# From MPC114602
C/2018 EN4 (NEOWISE),e,81.8774,136.1293,35.0721,18.12047,0.0127776,0.91955943,16.1617,11/21.0/2021,2000,g 15.0,4.0
# From MPC114602
C/2018 EF9 (Lemmon),e,84.6190,172.5549,72.6223,503.6062,0.0000872,0.99690435,0.0000,05/22.2781/2018,2000,g 18.0,2.0
# From MPEC 2021-R75
C/2018 F1 (Grauer),e,46.0765,177.2755,71.6189,263.6623,0.0002302,0.98863917,0.0000,12/13.2088/2018,2000,g 11.5,4.0
# From MPC110084
C/2018 F3 (Johnson),p,08/15.2314/2017,105.5348,293.0113,2.483172,173.0311,2000,13.0,4.0
# From MPEC 2021-W31
C/2018 F4 (PANSTARRS),h,12/03.9871/2019,78.0863,26.5157,263.2316,1.000884,3.441368,2000,11.0,6.0
# From MPEC 2021-W31
C/2018 F4-A,h,12/03.9757/2019,78.0864,26.5159,263.2285,1.000833,3.441239,2000,11.0,6.0
# From MPEC 2021-W31
C/2018 F4-B,h,12/03.9116/2019,78.0872,26.5155,263.2134,1.000928,3.441019,2000,11.0,6.0
# From MPC114602
P/2018 H2 (PANSTARRS),e,7.3913,68.3041,119.9420,4.388724,0.1072005,0.54065806,149.9877,11/21.0/2021,2000,g 16.6,2.0
# From MPC114602
C/2018 K1 (Weiland),e,164.1938,260.0915,325.1625,30.09678,0.0059693,0.93743115,7.9030,11/21.0/2021,2000,g 14.9,4.0
# From MPEC 2021-R75
C/2018 KJ3 (Lemmon),e,136.7001,91.6187,217.6763,931.0505,0.0000347,0.99610126,0.0000,09/09.8590/2019,2000,g 12.2,2.0
# From MPC114602
P/2018 L1 (PANSTARRS),e,10.5877,268.6308,18.0190,3.652068,0.1412199,0.48249841,155.9822,11/21.0/2021,2000,g 15.0,4.0
# From MPEC 2021-P47
C/2018 L2 (ATLAS),e,67.3389,243.0187,56.2959,261.9327,0.0002325,0.99345703,0.0000,12/02.6499/2018,2000,g 10.0,4.0
# From MPC114603
P/2018 L4 (PANSTARRS),e,26.6254,145.1520,140.6073,4.942918,0.0896869,0.65980184,108.3717,11/21.0/2021,2000,g 17.5,4.0
# From MPC119996
P/2018 L5 (Leonard),e,2.2081,219.0869,93.8863,3.628343,0.1426072,0.36464511,184.7586,11/21.0/2021,2000,g 14.5,4.0
# From MPC117070
C/2018 M1 (Catalina),e,37.3025,339.4082,14.1920,21.41841,0.0099431,0.93917219,12.2243,11/21.0/2021,2000,g 15.5,4.0
# From MPC112393
C/2018 N1 (NEOWISE),e,159.4365,292.4691,354.6791,370.9279,0.0001380,0.99646610,0.0000,08/02.1542/2018,2000,g 15.5,4.0
# From MPEC 2021-W31
C/2018 N2 (ASASSN),h,11/11.0417/2019,77.5371,25.2249,24.4235,1.000317,3.125367,2000,6.0,4.0
# From MPC114603
C/2018 O1 (ATLAS),e,154.0281,87.6913,162.6465,28.01279,0.0066477,0.94428133,7.8254,11/21.0/2021,2000,g 17.0,4.0
# From MPC114603
P/2018 P3 (PANSTARRS),e,8.9112,59.1671,305.9106,3.005398,0.1891695,0.41684093,215.1987,11/21.0/2021,2000,g 14.5,4.0
# From MPC114603
P/2018 P4 (PANSTARRS),e,23.1095,353.0627,8.3016,6.677094,0.0571246,0.45064376,63.3232,11/21.0/2021,2000,g 12.0,4.0
# From MPEC 2021-P47
C/2018 P5 (PANSTARRS),e,7.2500,216.2262,131.8139,12.82119,0.0214690,0.64277150,21.4134,11/21.0/2021,2000,g 11.0,4.0
# From MPC118841
C/2018 R3 (Lemmon),e,69.7292,324.6407,112.7871,1577,0.0000157,0.99918399,0.0000,06/07.3812/2019,2000,g  9.5,4.0
# From MPC112393
C/2018 R4 (Fuls),e,11.6806,298.4627,345.3153,336.7949,0.0001595,0.99490007,0.0000,03/03.3903/2018,2000,g 14.0,4.0
# From MPC114603
C/2018 R5 (Lemmon),e,103.7494,171.1153,178.0989,22.81294,0.0090455,0.84105140,9.4610,11/21.0/2021,2000,g 11.5,4.0
# From MPEC 2021-U31
C/2018 U1 (Lemmon),h,11/03.0889/2021,108.2995,75.4803,180.4652,1.001387,4.992958,2000,5.0,4.0
# From MPC114604
C/2018 V1 (Machholz-Fujikawa-Iwamoto),h,12/03.0310/2018,144.0601,128.9045,88.9034,1.000330,0.387677,2000,12.0,4.0
# From MPC115884
C/2018 V2 (ATLAS),e,159.1677,357.0817,318.9468,25.04785,0.0078623,0.90102961,8.5785,11/21.0/2021,2000,g 15.0,4.0
# From MPC114604
P/2018 VN2 (Leonard),e,18.2543,226.4833,138.7797,4.064284,0.1202896,0.47877303,152.0135,11/21.0/2021,2000,g 15.0,4.0
# From MPEC 2021-P47
A/2018 V3,e,164.9766,308.6617,3.5606,124.3162,0.0007111,0.98921013,0.0000,09/08.7566/2019,2000,g 15.7,2.0
# From MPC114604
C/2018 V4 (Africano),e,69.0086,78.3378,359.9259,203.8147,0.0003387,0.98432034,0.0000,03/01.3707/2019,2000,g 12.5,4.0
# From MPEC 2021-P47
P/2018 V5 (Trujillo-Sheppard),e,10.5881,171.2865,260.6592,8.954890,0.0367802,0.47492904,42.1191,11/21.0/2021,2000,g 12.5,4.0
# From MPEC 2021-P47
C/2018 W1 (Catalina),e,83.3051,233.6134,251.2383,21.67927,0.0097642,0.93724381,9.0255,11/21.0/2021,2000,g 15.5,2.0
# From MPEC 2021-P47
C/2018 W2 (Africano),h,09/05.5176/2019,116.6224,181.8277,157.9940,1.000404,1.456634,2000,9.5,4.0
# From MPC119996
C/2018 X2 (Fitzsimmons),e,23.0692,340.8324,162.0160,143.4021,0.0005739,0.98517805,0.0000,07/08.2483/2019,2000,g 12.0,4.0
# From MPC114604
C/2018 X3 (PANSTARRS),e,43.3806,78.8802,359.7335,12.36991,0.0226545,0.78220672,23.9315,11/21.0/2021,2000,g 14.5,4.0
# From MPC118842
C/2018 Y1 (Iwamoto),e,160.3991,147.5137,357.9833,136.8184,0.0006159,0.99061564,0.0000,02/06.7999/2019,2000,g 11.5,4.0
# From MPC114605
P/2018 Y2 (Africano),e,11.6824,297.2532,162.2855,7.457153,0.0483999,0.47869580,51.0400,11/21.0/2021,2000,g 11.5,4.0
# From MPC114605
P/2019 A1 (PANSTARRS),e,13.7448,312.2978,150.7399,5.120011,0.0850742,0.56846015,96.7667,11/21.0/2021,2000,g 16.0,4.0
# From MPEC 2021-P47
P/2019 A2 (ATLAS),e,14.8599,139.4705,323.9489,5.718691,0.0720708,0.38146648,79.0511,11/21.0/2021,2000,g 10.5,4.0
# From MPEC 2021-P47
P/2019 A3 (PANSTARRS),e,15.3717,31.2924,325.5418,3.146090,0.1766231,0.26588070,213.0016,11/21.0/2021,2000,g 16.0,4.0
# From MPC114605
P/2019 A4 (PANSTARRS),e,13.3096,119.2810,342.1891,2.615976,0.2329451,0.08741078,251.8389,11/21.0/2021,2000,g 15.0,4.0
# From MPEC 2021-P47
C/2019 A5 (PANSTARRS),e,67.5596,146.6280,355.9059,21.54266,0.0098572,0.70661217,8.8439,11/21.0/2021,2000,g  9.5,4.0
# From MPC114605
P/2019 A6 (Lemmon-PANSTARRS),e,33.2381,280.2476,156.1819,5.360147,0.0794217,0.63925749,93.6959,11/21.0/2021,2000,g 16.0,4.0
# From MPC115884
P/2019 A8 (PANSTARRS),e,2.4253,119.7663,58.3603,4.031948,0.1217396,0.31989938,133.9824,11/21.0/2021,2000,g 16.0,4.0
# From MPC118842
C/2019 A9 (PANSTARRS),e,84.1751,278.3845,237.9400,39.34853,0.0039931,0.96363435,3.3893,11/21.0/2021,2000,g 15.0,4.0
# From MPC114606
C/2019 B1 (Africano),e,123.3683,290.4275,174.8152,141.0239,0.0005885,0.98867884,0.0000,03/19.4250/2019,2000,g 16.0,4.0
# From MPC115885
P/2019 B2 (Groeller),e,16.9579,175.8637,0.4918,3.885536,0.1286849,0.37003114,115.2707,11/21.0/2021,2000,g 14.5,4.0
# From MPEC 2021-W31
C/2019 B3 (PANSTARRS),h,01/20.3072/2021,66.5355,358.4362,263.9337,1.001652,6.823344,2000,5.5,4.0
# From MPEC 2021-P47
C/2019 C1 (ATLAS),e,36.0366,212.3858,319.1592,691.3930,0.0000542,0.99048241,0.0000,05/05.1599/2020,2000,g 10.0,4.0
# From MPC118842
C/2019 D1 (Flewelling),e,34.0546,231.7011,70.5788,143.0105,0.0005763,0.98894636,0.0000,05/11.8098/2019,2000,g 13.0,4.0
# From MPEC 2021-P47
C/2019 E3 (ATLAS),h,11/13.6032/2023,84.2975,347.2535,280.6412,1.002436,10.313916,2000,2.5,4.0
# From MPEC 2021-UA9
C/2019 F1 (ATLAS-Africano),h,06/22.9304/2021,54.1746,38.7206,251.1476,1.003737,3.595829,2000,5.5,4.0
# From MPEC 2021-P47
C/2019 F2 (ATLAS),e,19.2228,175.5826,11.5037,16.68578,0.0144605,0.86553992,11.6302,11/21.0/2021,2000,g 12.0,4.0
# From MPEC 2021-P47
A/2019 G2,e,159.2052,208.1508,82.6160,579.0369,0.0000707,0.99604355,0.0000,12/09.7857/2019,2000,g 16.5,2.0
# From MPEC 2021-N06
A/2019 G4,h,09/16.1378/2018,138.3825,130.4639,287.8617,1.002032,5.856069,2000,13.0,2.0
